IRIDIUM 171             
1 43929U 19002H   24076.24165452  .00000143  00000+0  43931-4 0  9998
2 43929  86.4021 337.7301 0002286  82.8698 277.2757 14.34218611271001
IRIDIUM 170             
1 43930U 19002J   24076.75569789  .00001076  00000+0  16702-3 0  9998
2 43930  86.6139 337.3510 0002138  85.8899 274.2563 14.72198963278250
IRIDIUM 167             
1 43931U 19002K   24076.65392150  .00000211  00000+0  68371-4 0  9994
2 43931  86.4010 337.3581 0002225  83.2848 276.8600 14.34219154271064
IRIDIUM 181             
1 56726U 23068S   24076.36135282  .00000215  00000+0  57683-4 0  9994
2 56726  86.8669  26.6618 0002725  84.9284 275.2229 14.43556435 43748
IRIDIUM 177             
1 56727U 23068T   24076.27292730  .00001613  00000+0  20886-3 0  9994
2 56727  86.2033 359.4696 0002865  86.2349 273.9200 14.80209422 44638
IRIDIUM 174             
1 56728U 23068U   24076.26750586  .00001907  00000+0  24755-3 0  9997
2 56728  86.2035 359.5688 0002366  90.9750 269.1742 14.80210486 44637
IRIDIUM 178             
1 56729U 23068V   24076.32971712  .00002621  00000+0  34159-3 0  9994
2 56729  86.5834  12.5886 0002370  91.4826 268.6667 14.80214470 44647
IRIDIUM 179             
1 56730U 23068W   24076.32429561  .00001082  00000+0  13890-3 0  9995
2 56730  86.6846  15.5518 0002510  88.0632 272.0877 14.80245643 44649
